{
  "norad_id": 47760,
  "name": "STARLINK-2178",
  "history": [
    {
      "epoch": "2026-03-28T12:33:37.478016Z",
      "apogee_km": 476.2138693936877,
      "perigee_km": 474.11127708461754,
      "latitude_deg": -5.7052813106419355e-05,
      "longitude_deg": 114.91272558072735,
      "height_km": 475.96201521165915,
      "semi_major_axis_km": 6853.299573239152,
      "eccentricity": 0.0001534,
      "inclination_deg": 53.1594,
      "raan_deg": 129.2615,
      "arg_perigee_deg": 84.6387,
      "mean_anomaly_deg": 275.4788,
      "mean_motion_rev_day": 15.30217582
    },
    {
      "epoch": "2026-03-29T02:40:05.287584Z",
      "apogee_km": 476.20618997017664,
      "perigee_km": 474.0090397466538,
      "latitude_deg": 1.9639448006886813e-05,
      "longitude_deg": -100.01357428176419,
      "height_km": 475.8205364547952,
      "semi_major_axis_km": 6853.244614858415,
      "eccentricity": 0.0001603,
      "inclination_deg": 53.1595,
      "raan_deg": 126.5304,
      "arg_perigee_deg": 80.322,
      "mean_anomaly_deg": 279.7962,
      "mean_motion_rev_day": 15.30235989
    },
    {
      "epoch": "2026-03-29T08:56:17.397312Z",
      "apogee_km": 476.16483029140727,
      "perigee_km": 473.9966092692239,
      "latitude_deg": -4.510655647210077e-05,
      "longitude_deg": 164.46471940987578,
      "height_km": 475.7696559933828,
      "semi_major_axis_km": 6853.217719780315,
      "eccentricity": 0.00015819,
      "inclination_deg": 53.1596,
      "raan_deg": 125.3167,
      "arg_perigee_deg": 78.8991,
      "mean_anomaly_deg": 281.2187,
      "mean_motion_rev_day": 15.30244997
    },
    {
      "epoch": "2026-03-30T13:09:14.780736Z",
      "apogee_km": 476.20071212672065,
      "perigee_km": 474.2562752688473,
      "latitude_deg": 1.2045085023988464e-05,
      "longitude_deg": 94.60597786931025,
      "height_km": 476.05683673961266,
      "semi_major_axis_km": 6853.365493697784,
      "eccentricity": 0.00014186,
      "inclination_deg": 53.1606,
      "raan_deg": 119.8558,
      "arg_perigee_deg": 85.8951,
      "mean_anomaly_deg": 274.2212,
      "mean_motion_rev_day": 15.30195504
    },
    {
      "epoch": "2026-03-30T19:25:27.661152Z",
      "apogee_km": 476.182141186423,
      "perigee_km": 474.2545664596064,
      "latitude_deg": 4.81770359953334e-05,
      "longitude_deg": -0.918873103402571,
      "height_km": 476.04378929694695,
      "semi_major_axis_km": 6853.355353823014,
      "eccentricity": 0.00014063,
      "inclination_deg": 53.1606,
      "raan_deg": 118.6421,
      "arg_perigee_deg": 85.685,
      "mean_anomaly_deg": 274.4312,
      "mean_motion_rev_day": 15.301989
    },
    {
      "epoch": "2026-03-31T11:05:59.097120Z",
      "apogee_km": 476.12317635088493,
      "perigee_km": 474.2019223552179,
      "latitude_deg": 9.476684399530072e-06,
      "longitude_deg": 120.27244997672992,
      "height_km": 475.9881644882409,
      "semi_major_axis_km": 6853.299549353051,
      "eccentricity": 0.00014017,
      "inclination_deg": 53.1605,
      "raan_deg": 115.6082,
      "arg_perigee_deg": 85.681,
      "mean_anomaly_deg": 274.4351,
      "mean_motion_rev_day": 15.3021759
    },
    {
      "epoch": "2026-04-01T18:27:04.098816Z",
      "apogee_km": 476.15051792824306,
      "perigee_km": 474.3604118164176,
      "latitude_deg": 1.718386218373699e-05,
      "longitude_deg": 2.645961211537391,
      "height_km": 476.23461620580093,
      "semi_major_axis_km": 6853.39246487233,
      "eccentricity": 0.0001306,
      "inclination_deg": 53.1607,
      "raan_deg": 109.5401,
      "arg_perigee_deg": 95.1956,
      "mean_anomaly_deg": 264.9194,
      "mean_motion_rev_day": 15.30186471
    }
  ]
}